{"type": "FeatureCollection", "features": [ {"type": "Feature", "properties": {"norad_id": 40118, "name": "GAOFEN-2", "group": "resource", "lat": 37.88593375241579, "lon": 49.488735900949465, "alt_km": 620.4165286852349, "timestamp": "2025-12-22T14:45:57.042010+00:00", "meta": {"OBJECT_NAME": "GAOFEN-2", "OBJECT_ID": "2014-049A", "EPOCH": "2025-12-22T06:29:01.720320", "MEAN_MOTION": 14.80624665, "ECCENTRICITY": 0.00087736, "INCLINATION": 98.0375, "RA_OF_ASC_NODE": 55.4553, "ARG_OF_PERICENTER": 86.7911, "MEAN_ANOMALY": 273.4305, "EPHEMERIS_TYPE": 0, "CLASSIFICATION_TYPE": "U", "NORAD_CAT_ID": 40118, "ELEMENT_SET_NO": 999, "REV_AT_EPOCH": 61305, "BSTAR": 0.00012686741, "MEAN_MOTION_DOT": 9.21e-06, "MEAN_MOTION_DDOT": 0}, "tle": {"line1": "1 40118U 14049A   25356.27015880  .00000921  00000+0  12687-3 0  9992", "line2": "2 40118  98.0375  55.4553 0008773  86.7911 273.4305 14.80624665613053"}}, "geometry": {"type": "Point", "coordinates": [49.488735900949465, 37.88593375241579]}}, {"type": "Feature", "properties": {"norad_id": 40143, "name": "YAOGAN-21", "group": "resource", "lat": 82.62211534430361, "lon": -63.90718807332932, "alt_km": 486.25344821085037, "timestamp": "2025-12-22T14:45:57.042020+00:00", "meta": {"OBJECT_NAME": "YAOGAN-21", "OBJECT_ID": "2014-053A", "EPOCH": "2025-12-22T06:29:06.428256", "MEAN_MOTION": 15.23763108, "ECCENTRICITY": 0.00087829, "INCLINATION": 97.174, "RA_OF_ASC_NODE": 39.169, "ARG_OF_PERICENTER": 10.2594, "MEAN_ANOMALY": 349.8821, "EPHEMERIS_TYPE": 0, "CLASSIFICATION_TYPE": "U", "NORAD_CAT_ID": 40143, "ELEMENT_SET_NO": 999, "REV_AT_EPOCH": 62799, "BSTAR": 0.00017105393, "MEAN_MOTION_DOT": 4.05e-05, "MEAN_MOTION_DDOT": 0}, "tle": {"line1": "1 40143U 14053A   25356.27021329  .00004050  00000+0  17105-3 0  9997", "line2": "2 40143  97.1740  39.1690 0008782  10.2594 349.8821 15.23763108627990"}}, "geometry": {"type": "Point", "coordinates": [-63.90718807332932, 82.62211534430361]}}, {"type": "Feature", "properties": {"norad_id": 40275, "name": "YAOGAN-22", "group": "resource", "lat": 77.08137201525886, "lon": 16.0296643218955, "alt_km": 1197.3060874678167, "timestamp": "2025-12-22T14:45:57.042031+00:00", "meta": {"OBJECT_NAME": "YAOGAN-22", "OBJECT_ID": "2014-063A", "EPOCH": "2025-12-21T20:01:14.577600", "MEAN_MOTION": 13.15522949, "ECCENTRICITY": 0.00060434, "INCLINATION": 100.7428, "RA_OF_ASC_NODE": 139.3823, "ARG_OF_PERICENTER": 226.3916, "MEAN_ANOMALY": 133.6694, "EPHEMERIS_TYPE": 0, "CLASSIFICATION_TYPE": "U", "NORAD_CAT_ID": 40275, "ELEMENT_SET_NO": 999, "REV_AT_EPOCH": 53649, "BSTAR": 7.018864e-05, "MEAN_MOTION_DOT": -2e-07, "MEAN_MOTION_DDOT": 0}, "tle": {"line1": "1 40275U 14063A   25355.83419650 -.00000020  00000+0  70189-4 0  9999", "line2": "2 40275 100.7428 139.3823 0006043 226.3916 133.6694 13.15522949536493"}}, "geometry": {"type": "Point", "coordinates": [16.0296643218955, 77.08137201525886]}}, {"type": "Feature", "properties": {"norad_id": 40298, "name": "ASNARO", "group": "resource", "lat": -7.157761004390717, "lon": 73.25157795570945, "alt_km": 511.64410921548733, "timestamp": "2025-12-22T14:45:57.042041+00:00", "meta": {"OBJECT_NAME": "ASNARO", "OBJECT_ID": "2014-070A", "EPOCH": "2025-12-22T05:18:56.951136", "MEAN_MOTION": 15.19679305, "ECCENTRICITY": 0.00057202, "INCLINATION": 97.3648, "RA_OF_ASC_NODE": 71.9367, "ARG_OF_PERICENTER": 97.4427, "MEAN_ANOMALY": 262.7458, "EPHEMERIS_TYPE": 0, "CLASSIFICATION_TYPE": "U", "NORAD_CAT_ID": 40298, "ELEMENT_SET_NO": 999, "REV_AT_EPOCH": 61713, "BSTAR": 0.00066494586, "MEAN_MOTION_DOT": 0.00014144, "MEAN_MOTION_DDOT": 0}, "tle": {"line1": "1 40298U 14070A   25356.22149249  .00014144  00000+0  66495-3 0  9995", "line2": "2 40298  97.3648  71.9367 0005720  97.4427 262.7458 15.19679305617130"}}, "geometry": {"type": "Point", "coordinates": [73.25157795570945, -7.157761004390717]}}, {"type": "Feature", "properties": {"norad_id": 40310, "name": "YAOGAN-24", "group": "resource", "lat": -44.65607303554069, "lon": -60.351222772834305, "alt_km": 652.8579384175673, "timestamp": "2025-12-22T14:45:57.042050+00:00", "meta": {"OBJECT_NAME": "YAOGAN-24", "OBJECT_ID": "2014-072A", "EPOCH": "2025-12-22T07:14:35.920896", "MEAN_MOTION": 14.76193369, "ECCENTRICITY": 0.0015136, "INCLINATION": 98.1229, "RA_OF_ASC_NODE": 127.4464, "ARG_OF_PERICENTER": 109.3966, "MEAN_ANOMALY": 250.8881, "EPHEMERIS_TYPE": 0, "CLASSIFICATION_TYPE": "U", "NORAD_CAT_ID": 40310, "ELEMENT_SET_NO": 999, "REV_AT_EPOCH": 59762, "BSTAR": 3.9786764e-05, "MEAN_MOTION_DOT": 2.23e-06, "MEAN_MOTION_DDOT": 0}, "tle": {"line1": "1 40310U 14072A   25356.30180464  .00000223  00000+0  39787-4 0  9993", "line2": "2 40310  98.1229 127.4464 0015136 109.3966 250.8881 14.76193369597629"}}, "geometry": {"type": "Point", "coordinates": [-60.351222772834305, -44.65607303554069]}}, {"type": "Feature", "properties": {"norad_id": 40336, "name": "CBERS 4", "group": "resource", "lat": -37.783971730834544, "lon": 60.815735705918236, "alt_km": 780.7166676821425, "timestamp": "2025-12-22T14:45:57.042060+00:00", "meta": {"OBJECT_NAME": "CBERS 4", "OBJECT_ID": "2014-079A", "EPOCH": "2025-12-22T06:34:46.504704", "MEAN_MOTION": 14.35521189, "ECCENTRICITY": 0.00018541, "INCLINATION": 98.3298, "RA_OF_ASC_NODE": 53.9647, "ARG_OF_PERICENTER": 102.0364, "MEAN_ANOMALY": 258.103, "EPHEMERIS_TYPE": 0, "CLASSIFICATION_TYPE": "U", "NORAD_CAT_ID": 40336, "ELEMENT_SET_NO": 999, "REV_AT_EPOCH": 57857, "BSTAR": 7.3000793e-05, "MEAN_MOTION_DOT": 1.68e-06, "MEAN_MOTION_DDOT": 0}, "tle": {"line1": "1 40336U 14079A   25356.27414936  .00000168  00000+0  73001-4 0  9993", "line2": "2 40336  98.3298  53.9647 0001854 102.0364 258.1030 14.35521189578575"}}, "geometry": {"type": "Point", "coordinates": [60.815735705918236, -37.783971730834544]}}, {"type": "Feature", "properties": {"norad_id": 40362, "name": "YAOGAN-26", "group": "resource", "lat": 4.988250180429479, "lon": -3.6812904268302855, "alt_km": 446.29158696672494, "timestamp": "2025-12-22T14:45:57.042070+00:00", "meta": {"OBJECT_NAME": "YAOGAN-26", "OBJECT_ID": "2014-088A", "EPOCH": "2025-12-22T06:56:41.541216", "MEAN_MOTION": 15.39615977, "ECCENTRICITY": 0.00049518, "INCLINATION": 97.0636, "RA_OF_ASC_NODE": 356.6244, "ARG_OF_PERICENTER": 0.5352, "MEAN_ANOMALY": 359.5899, "EPHEMERIS_TYPE": 0, "CLASSIFICATION_TYPE": "U", "NORAD_CAT_ID": 40362, "ELEMENT_SET_NO": 999, "REV_AT_EPOCH": 61041, "BSTAR": 0.00053316792, "MEAN_MOTION_DOT": 0.00020966, "MEAN_MOTION_DDOT": 0}, "tle": {"line1": "1 40362U 14088A   25356.28936969  .00020966  00000+0  53317-3 0  9993", "line2": "2 40362  97.0636 356.6244 0004951   0.5352 359.5899 15.39615977610415"}}, "geometry": {"type": "Point", "coordinates": [-3.6812904268302855, 4.988250180429479]}}, {"type": "Feature", "properties": {"norad_id": 40376, "name": "SMAP", "group": "resource", "lat": 70.82119341877845, "lon": -23.066523953015995, "alt_km": 674.6781574401966, "timestamp": "2025-12-22T14:45:57.042081+00:00", "meta": {"OBJECT_NAME": "SMAP", "OBJECT_ID": "2015-003A", "EPOCH": "2025-12-22T06:13:48.914688", "MEAN_MOTION": 14.63356464, "ECCENTRICITY": 0.00012293, "INCLINATION": 98.1289, "RA_OF_ASC_NODE": 0.8462, "ARG_OF_PERICENTER": 91.7597, "MEAN_ANOMALY": 268.3746, "EPHEMERIS_TYPE": 0, "CLASSIFICATION_TYPE": "U", "NORAD_CAT_ID": 40376, "ELEMENT_SET_NO": 999, "REV_AT_EPOCH": 58174, "BSTAR": 0.00010691183, "MEAN_MOTION_DOT": 5.05e-06, "MEAN_MOTION_DDOT": 0}, "tle": {"line1": "1 40376U 15003A   25356.25959392  .00000505  00000+0  10691-3 0  9993", "line2": "2 40376  98.1289   0.8462 0001229  91.7597 268.3746 14.63356464581744"}}, "geometry": {"type": "Point", "coordinates": [-23.066523953015995, 70.82119341877845]}}, {"type": "Feature", "properties": {"norad_id": 40536, "name": "KOMPSAT-3A", "group": "resource", "lat": 67.38559210202266, "lon": 170.41143547295718, "alt_km": 423.17960630180096, "timestamp": "2025-12-22T14:45:57.042091+00:00", "meta": {"OBJECT_NAME": "KOMPSAT-3A", "OBJECT_ID": "2015-014A", "EPOCH": "2025-12-22T06:30:36.988416", "MEAN_MOTION": 15.44274331, "ECCENTRICITY": 0.00055385, "INCLINATION": 97.6798, "RA_OF_ASC_NODE": 331.1463, "ARG_OF_PERICENTER": 105.842, "MEAN_ANOMALY": 254.3438, "EPHEMERIS_TYPE": 0, "CLASSIFICATION_TYPE": "U", "NORAD_CAT_ID": 40536, "ELEMENT_SET_NO": 999, "REV_AT_EPOCH": 59442, "BSTAR": 0.00045237292, "MEAN_MOTION_DOT": 0.00020755, "MEAN_MOTION_DDOT": 0}, "tle": {"line1": "1 40536U 15014A   25356.27126144  .00020755  00000+0  45237-3 0  9999", "line2": "2 40536  97.6798 331.1463 0005538 105.8420 254.3438 15.44274331594425"}}, "geometry": {"type": "Point", "coordinates": [170.41143547295718, 67.38559210202266]}}, {"type": "Feature", "properties": {"norad_id": 40697, "name": "SENTINEL-2A", "group": "resource", "lat": -45.47838878891971, "lon": -119.8148435930683, "alt_km": 796.3073927666401, "timestamp": "2025-12-22T14:45:57.042101+00:00", "meta": {"OBJECT_NAME": "SENTINEL-2A", "OBJECT_ID": "2015-028A", "EPOCH": "2025-12-22T06:59:57.456672", "MEAN_MOTION": 14.30808655, "ECCENTRICITY": 0.000107, "INCLINATION": 98.5739, "RA_OF_ASC_NODE": 68.6905, "ARG_OF_PERICENTER": 89.1988, "MEAN_ANOMALY": 270.9317, "EPHEMERIS_TYPE": 0, "CLASSIFICATION_TYPE": "U", "NORAD_CAT_ID": 40697, "ELEMENT_SET_NO": 999, "REV_AT_EPOCH": 54843, "BSTAR": 2.1488581e-05, "MEAN_MOTION_DOT": 1.3e-07, "MEAN_MOTION_DDOT": 0}, "tle": {"line1": "1 40697U 15028A   25356.29163723  .00000013  00000+0  21489-4 0  9997", "line2": "2 40697  98.5739  68.6905 0001070  89.1988 270.9317 14.30808655548437"}}, "geometry": {"type": "Point", "coordinates": [-119.8148435930683, -45.47838878891971]}}]}